JUPITER 3 (ECHOSTAR 24) 
1 57479U 23108A   26197.44693973 -.00000161  00000+0  00000+0 0  9993
2 57479   0.0123  42.7338 0001095  70.4132 246.8438  1.00271846 10947
GALAXY 37 (G-37)        
1 57493U 23112A   26198.24272977  .00000000  00000+0  00000+0 0  9991
2 57493   0.0192  54.9239 0001989  60.5977 139.9330  1.00269846 10842
LUDI TANCE-4 01A        
1 57624U 23120A   26198.00041119 -.00000188  00000+0  00000+0 0  9990
2 57624  15.0852 193.2277 0001504  13.3405 177.9382  1.00275549 10847
TJS-10                  
1 58204U 23169A   26197.77594424 -.00000261  00000+0  00000+0 0  9995
2 58204   2.6188  80.1357 0004084 114.6578 111.5406  1.00273410  9834
ZHONGXING-6E            
1 58253U 23172A   26195.70499280 -.00000370  00000+0  00000+0 0  9999
2 58253   0.0192  86.2131 0002698  23.7417 191.9164  1.00272476  9938
YAOGAN-41               
1 58582U 23197A   26198.29226828 -.00000370  00000+0  00000+0 0  9994
2 58582   3.0747 313.6247 0013924 200.9436   8.8655  1.00276333  9624
OVZON-3                 
1 58698U 24003A   26198.06588188  .00000042  00000+0  00000+0 0  9999
2 58698   0.0134 122.6869 0000242 221.9498  33.6442  1.00270446  7747
INSAT-3DS               
1 58990U 24033A   26198.15822488 -.00000166  00000+0  00000+0 0  9999
2 58990   0.0855 264.3862 0001133 223.2807 306.3367  1.00270806 47366
MERAH PUTIH 2           
1 58995U 24035A   26198.07645525  .00000000  00000+0  00000+0 0  9998
2 58995   0.0137  62.2046 0001094  30.7908 342.3755  1.00266097  8884
TJS-11                  
1 59020U 24037A   26197.98329998 -.00000371  00000+0  00000+0 0  9994
2 59020   4.1605 327.4596 0001857 152.0448 281.8630  1.00273020  8882
HULIANWAN GAOGUI-01 (H*)
1 59069U 24040A   26198.27458821  .00000146  00000+0  00000+0 0  9991
2 59069   0.0747 332.1411 0001970  67.1716  28.2531  1.00271825  7632
EUTELSAT 36D            
1 59346U 24059A   26198.27502154  .00000146  00000+0  00000+0 0  9998
2 59346   0.0181  54.3896 0000118 195.5203 180.0584  1.00270226  8441
PAKSAT-MM1              
1 59915U 24104A   26198.27545487  .00000144  00000+0  00000+0 0  9995
2 59915   0.0302 165.0125 0002006 291.8471 335.5693  1.00271121  7822
ASTRA 1P (SES-24)       
1 60086U 24115A   26198.09836377  .00000109  00000+0  00000+0 0  9990
2 60086   0.0661 332.7796 0000875 228.6583 148.0995  1.00271227  7494
GOES 19                 
1 60133U 24119A   26198.25300809 -.00000258  00000+0  00000+0 0  9997
2 60133   0.0146 136.9734 0000400  64.6302 109.3525  1.00271001  7266
TURKSAT 6A              
1 60233U 24127A   26198.20491358  .00000000  00000+0  00000+0 0  9996
2 60233   0.0182 192.5926 0002996 334.4822 243.6919  1.00270613  7318
HULIANWAN GAOGUI-02 (H*)
1 60327U 24135A   26198.14280782 -.00000184  00000+0  00000+0 0  9993
2 60327   0.0469 357.5874 0006143  11.5161 130.2992  1.00271956  7809
ZHONGXING-4A            
1 60606U 24151A   26198.29131494 -.00000372  00000+0  00000+0 0  9991
2 60606   1.2379 270.4719 0000223  28.8005 218.9067  1.00274358  7057
HULIANWAN GAOGUI-03 (H*)
1 61503U 24181A   26197.82491916 -.00000251  00000+0  00000+0 0  9993
2 61503   0.0514 357.5720 0001101  95.5770  61.3463  1.00270553  7128
DSN-3 (KIRAMEKI-3)      
1 61733U 24198A   26198.01124458 -.00000260  00000+0  00000+0 0  9992
2 61733   0.0181  47.9410 0000882  90.5907 304.4135  1.00271383  6219
KOREASAT 6A             
1 61910U 24206A   26198.29088161 -.00000372  00000+0  00000+0 0  9993
2 61910   0.0190 102.2957 0000792 353.3316  60.1923  1.00269162  6146
OPTUS-X (ADS-01)        
1 62006U 24212A   26198.18933684  .00000000  00000+0  00000+0 0  9991
2 62006   0.0177  42.4515 0002349 107.5571   9.5883  1.00275610  6063
GSAT-N2 (GSAT-20)       
1 62028U 24214A   26198.21011361 -.00000029  00000+0  00000+0 0  9992
2 62028   0.0685 261.5059 0002666 145.9152  31.1764  1.00271549  6191
SXM-9                   
1 62259U 24234A   26198.08302372 -.00000215  00000+0  00000+0 0  9997
2 62259   0.0166 347.8139 0004959 330.4985 281.3059  1.00271649  5871
TJS-12                  
1 62374U 24246A   26198.19419888 -.00000242  00000+0  00000+0 0  9991
2 62374   0.6071 302.3576 0001838  98.7280 110.3437  1.00268637  5869
NUVIEW ALPHA            
1 62455U 24252B   26198.25144808 -.00000225  00000+0  00000+0 0  9993
2 62455   0.0410  22.2918 0001115  67.3286 212.8698  1.00272154  4128
AGILA                   
1 62456U 24252C   26198.24350389 -.00000191  00000+0  00000+0 0  9998
2 62456   0.0405 168.8391 0001380 309.3577  56.6902  1.00272750  5463
NUVIEW BRAVO            
1 62457U 24252D   26198.25144808 -.00000225  00000+0  00000+0 0  9995
2 62457   0.0685 166.6833 0001624 338.8913 156.9041  1.00271537  4091
THURAYA-4               
1 62483U 25001A   26198.27666821  .00000129  00000+0  00000+0 0  9995
2 62483   0.0231  74.6581 0000403 124.8216 239.5276  1.00273756  4473
SHIJIAN-25 (SJ-25)      
1 62485U 25002A   26197.77611625 -.00000364  00000+0  00000+0 0  9996
2 62485   5.1818  60.9762 0052123 175.5524 104.5543  1.00261568  5659
