OBJECT_NAME,OBJECT_ID,EPOCH,MEAN_MOTION,ECCENTRICITY,INCLINATION,RA_OF_ASC_NODE,ARG_OF_PERICENTER,MEAN_ANOMALY,EPHEMERIS_TYPE,CLASSIFICATION_TYPE,NORAD_CAT_ID,ELEMENT_SET_NO,REV_AT_EPOCH,BSTAR,MEAN_MOTION_DOT,MEAN_MOTION_DDOT
JUPITER 3 (ECHOSTAR 24),2023-108A,2026-07-16T10:43:35.592672,1.00271846,.00010957,0.0123,42.7338,70.4132,246.8438,0,U,57479,999,1094,0,-.161E-5,0
GALAXY 37 (G-37),2023-112A,2026-07-17T05:49:31.852128,1.00269846,.0001989,0.0192,54.9239,60.5977,139.9330,0,U,57493,999,1084,0,0,0
LUDI TANCE-4 01A,2023-120A,2026-07-17T00:00:35.526816,1.00275549,.0001504,15.0852,193.2277,13.3405,177.9382,0,U,57624,999,1084,0,-.188E-5,0
TJS-10,2023-169A,2026-07-16T18:37:21.582336,1.00273410,.0004084,2.6188,80.1357,114.6578,111.5406,0,U,58204,999,983,0,-.261E-5,0
ZHONGXING-6E,2023-172A,2026-07-14T16:55:11.377920,1.00272476,.0002698,0.0192,86.2131,23.7417,191.9164,0,U,58253,999,993,0,-.37E-5,0
YAOGAN-41,2023-197A,2026-07-17T07:00:51.979392,1.00276333,.00139242,3.0747,313.6247,200.9436,8.8655,0,U,58582,999,962,0,-.37E-5,0
OVZON-3,2024-003A,2026-07-17T01:34:52.194432,1.00270446,.00002421,0.0134,122.6869,221.9498,33.6442,0,U,58698,999,774,0,.42E-6,0
INSAT-3DS,2024-033A,2026-07-17T03:47:50.629632,1.00270806,.00011331,0.0855,264.3862,223.2807,306.3367,0,U,58990,999,4736,0,-.166E-5,0
MERAH PUTIH 2,2024-035A,2026-07-17T01:50:05.733600,1.00266097,.00010943,0.0137,62.2046,30.7908,342.3755,0,U,58995,999,888,0,0,0
TJS-11,2024-037A,2026-07-16T23:35:57.118272,1.00273020,.0001857,4.1605,327.4596,152.0448,281.8630,0,U,59020,999,888,0,-.371E-5,0
HULIANWAN GAOGUI-01 (HG-01),2024-040A,2026-07-17T06:35:24.421344,1.00271825,.00019703,0.0747,332.1411,67.1716,28.2531,0,U,59069,999,763,0,.146E-5,0
EUTELSAT 36D,2024-059A,2026-07-17T06:36:01.861056,1.00270226,.00001189,0.0181,54.3896,195.5203,180.0584,0,U,59346,999,844,0,.146E-5,0
PAKSAT-MM1,2024-104A,2026-07-17T06:36:39.300768,1.00271121,.00020068,0.0302,165.0125,291.8471,335.5693,0,U,59915,999,782,0,.144E-5,0
ASTRA 1P (SES-24),2024-115A,2026-07-17T02:21:38.629728,1.00271227,.0000875,0.0661,332.7796,228.6583,148.0995,0,U,60086,999,749,0,.109E-5,0
GOES 19,2024-119A,2026-07-17T06:04:19.898976,1.00271001,.00004005,0.0146,136.9734,64.6302,109.3525,0,U,60133,999,726,0,-.258E-5,0
TURKSAT 6A,2024-127A,2026-07-17T04:55:04.533312,1.00270613,.00029968,0.0182,192.5926,334.4822,243.6919,0,U,60233,999,731,0,0,0
HULIANWAN GAOGUI-02 (HG-02),2024-135A,2026-07-17T03:25:38.595648,1.00271956,.00061439,0.0469,357.5874,11.5161,130.2992,0,U,60327,999,780,0,-.184E-5,0
ZHONGXING-4A,2024-151A,2026-07-17T06:59:29.610816,1.00274358,.00002239,1.2379,270.4719,28.8005,218.9067,0,U,60606,999,705,0,-.372E-5,0
HULIANWAN GAOGUI-03 (HG-03),2024-181A,2026-07-16T19:47:53.015424,1.00270553,.00011016,0.0514,357.5720,95.5770,61.3463,0,U,61503,999,712,0,-.251E-5,0
DSN-3 (KIRAMEKI-3),2024-198A,2026-07-17T00:16:11.531712,1.00271383,.00008828,0.0181,47.9410,90.5907,304.4135,0,U,61733,999,621,0,-.26E-5,0
KOREASAT 6A,2024-206A,2026-07-17T06:58:52.171104,1.00269162,.00007928,0.0190,102.2957,353.3316,60.1923,0,U,61910,999,614,0,-.372E-5,0
OPTUS-X (ADS-01),2024-212A,2026-07-17T04:32:38.702976,1.00275610,.00023496,0.0177,42.4515,107.5571,9.5883,0,U,62006,999,606,0,0,0
GSAT-N2 (GSAT-20),2024-214A,2026-07-17T05:02:33.815904,1.00271549,.00026661,0.0685,261.5059,145.9152,31.1764,0,U,62028,999,619,0,-.29E-6,0
SXM-9,2024-234A,2026-07-17T01:59:33.249408,1.00271649,.00049592,0.0166,347.8139,330.4985,281.3059,0,U,62259,999,587,0,-.215E-5,0
TJS-12,2024-246A,2026-07-17T04:39:38.783232,1.00268637,.00018383,0.6071,302.3576,98.7280,110.3437,0,U,62374,999,586,0,-.242E-5,0
NUVIEW ALPHA,2024-252B,2026-07-17T06:02:05.114112,1.00272154,.00011157,0.0410,22.2918,67.3286,212.8698,0,U,62455,999,412,0,-.225E-5,0
AGILA,2024-252C,2026-07-17T05:50:38.736096,1.00272750,.00013803,0.0405,168.8391,309.3577,56.6902,0,U,62456,999,546,0,-.191E-5,0
NUVIEW BRAVO,2024-252D,2026-07-17T06:02:05.114112,1.00271537,.00016241,0.0685,166.6833,338.8913,156.9041,0,U,62457,999,409,0,-.225E-5,0
THURAYA-4,2025-001A,2026-07-17T06:38:24.133344,1.00273756,.0000403,0.0231,74.6581,124.8216,239.5276,0,U,62483,999,447,0,.129E-5,0
SHIJIAN-25 (SJ-25),2025-002A,2026-07-16T18:37:36.444000,1.00261568,.0052123,5.1818,60.9762,175.5524,104.5543,0,U,62485,999,565,0,-.364E-5,0
